ONEWEB-0228             
1 48780U 21045P   24140.17677490  .00000050  00000+0  99750-4 0  9999
2 48780  87.9051  50.2210 0001929  83.8082 276.3268 13.15548040145666
